[
    {
        "Altitude(m)": 554398.9739909789,
        "Argument of Periapsis(deg)": 0.026491964442854003,
        "Eccentricity": 0.0,
        "Inclination(deg)": 53.0,
        "Latitude(deg)": -1.2244881720950394,
        "Longitude(deg)": -144.10184872664396,
        "Mean Anomaly(deg)": -1.4517285296896525,
        "RAAN(deg)": 319.96057347411204,
        "Satellite Name": "Starlink Shell 1 1427",
        "Satellite Number": 1427,
        "Semi-Major Axis(m)": 6931778.249405717,
        "Time(s)": 760
    },
    {
        "Altitude(m)": 554328.2158097177,
        "Argument of Periapsis(deg)": 0.02684054292236524,
        "Eccentricity": 0.0,
        "Inclination(deg)": 53.0,
        "Latitude(deg)": -0.7206088920452319,
        "Longitude(deg)": -143.76638319306292,
        "Mean Anomaly(deg)": -0.824897326132906,
        "RAAN(deg)": 319.9600547040346,
        "Satellite Name": "Starlink Shell 1 1427",
        "Satellite Number": 1427,
        "Semi-Major Axis(m)": 6931778.249405717,
        "Time(s)": 770
    },
    {
        "Altitude(m)": 554260.2426601477,
        "Argument of Periapsis(deg)": 0.027189121401876473,
        "Eccentricity": 0.0,
        "Inclination(deg)": 53.0,
        "Latitude(deg)": -0.21668730999338054,
        "Longitude(deg)": -143.43099320594396,
        "Mean Anomaly(deg)": -0.19806612257615952,
        "RAAN(deg)": 319.9595359339571,
        "Satellite Name": "Starlink Shell 1 1427",
        "Satellite Number": 1427,
        "Semi-Major Axis(m)": 6931778.249405717,
        "Time(s)": 780
    },
    {
        "Altitude(m)": 554195.0637941891,
        "Argument of Periapsis(deg)": 0.02753769988138771,
        "Eccentricity": 0.0,
        "Inclination(deg)": 53.0,
        "Latitude(deg)": 0.28725367956972786,
        "Longitude(deg)": -143.0956207315498,
        "Mean Anomaly(deg)": 0.4287650809805362,
        "RAAN(deg)": 319.95901716387965,
        "Satellite Name": "Starlink Shell 1 1427",
        "Satellite Number": 1427,
        "Semi-Major Axis(m)": 6931778.249405717,
        "Time(s)": 790
    },
    {
        "Altitude(m)": 554132.6871091553,
        "Argument of Periapsis(deg)": 0.02788627836089895,
        "Eccentricity": 0.0,
        "Inclination(deg)": 53.0,
        "Latitude(deg)": 0.7911911833880036,
        "Longitude(deg)": -142.7602082456032,
        "Mean Anomaly(deg)": 1.0555962845372826,
        "RAAN(deg)": 319.95849839380213,
        "Satellite Name": "Starlink Shell 1 1427",
        "Satellite Number": 1427,
        "Semi-Major Axis(m)": 6931778.249405717,
        "Time(s)": 800
    },
    {
        "Altitude(m)": 554073.1191465931,
        "Argument of Periapsis(deg)": 0.02823485684041019,
        "Eccentricity": 0.0,
        "Inclination(deg)": 53.0,
        "Latitude(deg)": 1.295102297761921,
        "Longitude(deg)": -142.42469820377164,
        "Mean Anomaly(deg)": 1.682427488094029,
        "RAAN(deg)": 319.9579796237247,
        "Satellite Name": "Starlink Shell 1 1427",
        "Satellite Number": 1427,
        "Semi-Major Axis(m)": 6931778.249405717,
        "Time(s)": 810
    },
    {
        "Altitude(m)": 554016.3650917588,
        "Argument of Periapsis(deg)": 0.028583435319921423,
        "Eccentricity": 0.0,
        "Inclination(deg)": 53.0,
        "Latitude(deg)": 1.798964096862403,
        "Longitude(deg)": -142.08903251214264,
        "Mean Anomaly(deg)": 2.309258691650674,
        "RAAN(deg)": 319.9574608536472,
        "Satellite Name": "Starlink Shell 1 1427",
        "Satellite Number": 1427,
        "Semi-Major Axis(m)": 6931778.249405717,
        "Time(s)": 820
    },
    {
        "Altitude(m)": 553962.4287738216,
        "Argument of Periapsis(deg)": 0.028932013799432665,
        "Eccentricity": 0.0,
        "Inclination(deg)": 53.0,
        "Latitude(deg)": 2.302753621026684,
        "Longitude(deg)": -141.75315351055454,
        "Mean Anomaly(deg)": 2.9360898952073695,
        "RAAN(deg)": 319.95694208356974,
        "Satellite Name": "Starlink Shell 1 1427",
        "Satellite Number": 1427,
        "Semi-Major Axis(m)": 6931778.249405717,
        "Time(s)": 830
    },
    {
        "Altitude(m)": 553911.3126666999,
        "Argument of Periapsis(deg)": 0.029280592278943897,
        "Eccentricity": 0.0,
        "Inclination(deg)": 53.0,
        "Latitude(deg)": 2.806447865020559,
        "Longitude(deg)": -141.41700344302944,
        "Mean Anomaly(deg)": 3.562921098764116,
        "RAAN(deg)": 319.9564233134923,
        "Satellite Name": "Starlink Shell 1 1427",
        "Satellite Number": 1427,
        "Semi-Major Axis(m)": 6931778.249405717,
        "Time(s)": 840
    },
    {
        "Altitude(m)": 553863.017890602,
        "Argument of Periapsis(deg)": 0.029629170758455132,
        "Eccentricity": 0.0,
        "Inclination(deg)": 53.0,
        "Latitude(deg)": 3.310023766258115,
        "Longitude(deg)": -141.08052392817447,
        "Mean Anomaly(deg)": 4.189752302320863,
        "RAAN(deg)": 319.9559045434148,
        "Satellite Name": "Starlink Shell 1 1427",
        "Satellite Number": 1427,
        "Semi-Major Axis(m)": 6931778.249405717,
        "Time(s)": 850
    },
    {
        "Altitude(m)": 553817.5442142278,
        "Argument of Periapsis(deg)": 0.02997774923796637,
        "Eccentricity": 0.0,
        "Inclination(deg)": 53.0,
        "Latitude(deg)": 3.8134581929702525,
        "Longitude(deg)": -140.74365711051243,
        "Mean Anomaly(deg)": 4.816583505877558,
        "RAAN(deg)": 319.9553857733373,
        "Satellite Name": "Starlink Shell 1 1427",
        "Satellite Number": 1427,
        "Semi-Major Axis(m)": 6931778.249405717,
        "Time(s)": 860
    },
    {
        "Altitude(m)": 553774.8900576738,
        "Argument of Periapsis(deg)": 0.030326327717477602,
        "Eccentricity": 0.0,
        "Inclination(deg)": 53.0,
        "Latitude(deg)": 4.316727932304488,
        "Longitude(deg)": -140.4063442903107,
        "Mean Anomaly(deg)": 5.443414709434253,
        "RAAN(deg)": 319.9548670032599,
        "Satellite Name": "Starlink Shell 1 1427",
        "Satellite Number": 1427,
        "Semi-Major Axis(m)": 6931778.249405717,
        "Time(s)": 870
    },
    {
        "Altitude(m)": 553735.0524959728,
        "Argument of Periapsis(deg)": 0.030674906196988847,
        "Eccentricity": 0.0,
        "Inclination(deg)": 53.0,
        "Latitude(deg)": 4.819809678351433,
        "Longitude(deg)": -140.06852707481306,
        "Mean Anomaly(deg)": 6.0702459129910515,
        "RAAN(deg)": 319.9543482331824,
        "Satellite Name": "Starlink Shell 1 1427",
        "Satellite Number": 1427,
        "Semi-Major Axis(m)": 6931778.249405717,
        "Time(s)": 880
    },
    {
        "Altitude(m)": 553698.0272633304,
        "Argument of Periapsis(deg)": 0.031023484676500086,
        "Eccentricity": 0.0,
        "Inclination(deg)": 53.0,
        "Latitude(deg)": 5.322680020081035,
        "Longitude(deg)": -139.73014684843992,
        "Mean Anomaly(deg)": 6.697077116547748,
        "RAAN(deg)": 319.95382946310485,
        "Satellite Name": "Starlink Shell 1 1427",
        "Satellite Number": 1427,
        "Semi-Major Axis(m)": 6931778.249405717,
        "Time(s)": 890
    },
    {
        "Altitude(m)": 553663.8087580305,
        "Argument of Periapsis(deg)": 0.03137206315601132,
        "Eccentricity": 0.0,
        "Inclination(deg)": 53.0,
        "Latitude(deg)": 5.825315429179622,
        "Longitude(deg)": -139.39114424292285,
        "Mean Anomaly(deg)": 7.323908320104341,
        "RAAN(deg)": 319.95331069302745,
        "Satellite Name": "Starlink Shell 1 1427",
        "Satellite Number": 1427,
        "Semi-Major Axis(m)": 6931778.249405717,
        "Time(s)": 900
    },
    {
        "Altitude(m)": 553632.3900479903,
        "Argument of Periapsis(deg)": 0.03172064163552255,
        "Eccentricity": 0.0,
        "Inclination(deg)": 53.0,
        "Latitude(deg)": 6.327692247778009,
        "Longitude(deg)": -139.05146012024088,
        "Mean Anomaly(deg)": 7.950739523661139,
        "RAAN(deg)": 319.95279192295,
        "Satellite Name": "Starlink Shell 1 1427",
        "Satellite Number": 1427,
        "Semi-Major Axis(m)": 6931778.249405717,
        "Time(s)": 910
    },
    {
        "Altitude(m)": 553603.7628769934,
        "Argument of Periapsis(deg)": 0.0320692201150338,
        "Eccentricity": 0.0,
        "Inclination(deg)": 53.0,
        "Latitude(deg)": 6.82978667605434,
        "Longitude(deg)": -138.71103504260608,
        "Mean Anomaly(deg)": 8.577570727217886,
        "RAAN(deg)": 319.95227315287246,
        "Satellite Name": "Starlink Shell 1 1427",
        "Satellite Number": 1427,
        "Semi-Major Axis(m)": 6931778.249405717,
        "Time(s)": 920
    },
    {
        "Altitude(m)": 553577.9176715773,
        "Argument of Periapsis(deg)": 0.032417798594545036,
        "Eccentricity": 0.0,
        "Inclination(deg)": 53.0,
        "Latitude(deg)": 7.331574759703281,
        "Longitude(deg)": -138.36980874236767,
        "Mean Anomaly(deg)": 9.20440193077453,
        "RAAN(deg)": 319.95175438279506,
        "Satellite Name": "Starlink Shell 1 1427",
        "Satellite Number": 1427,
        "Semi-Major Axis(m)": 6931778.249405717,
        "Time(s)": 930
    },
    {
        "Altitude(m)": 553554.8435485614,
        "Argument of Periapsis(deg)": 0.03276637707405627,
        "Eccentricity": 0.0,
        "Inclination(deg)": 53.0,
        "Latitude(deg)": 7.833032377261781,
        "Longitude(deg)": -138.02772110470352,
        "Mean Anomaly(deg)": 9.831233134331224,
        "RAAN(deg)": 319.95123561271754,
        "Satellite Name": "Starlink Shell 1 1427",
        "Satellite Number": 1427,
        "Semi-Major Axis(m)": 6931778.249405717,
        "Time(s)": 940
    }
]